{"type": "FeatureCollection", "features": [ {"type": "Feature", "properties": {"norad_id": 31937, "name": "FENGYUN 1C DEB", "group": "fengyun-1c-debris", "lat": -52.89079536582323, "lon": 105.56866323152165, "alt_km": 573.2831184478391, "timestamp": "2025-12-27T08:36:18.667348+00:00", "meta": {"OBJECT_NAME": "FENGYUN 1C DEB", "OBJECT_ID": "1999-025CMN", "EPOCH": "2025-12-06T23:52:27.149088", "MEAN_MOTION": 14.78022374, "ECCENTRICITY": 0.0162921, "INCLINATION": 99.2561, "RA_OF_ASC_NODE": 69.7316, "ARG_OF_PERICENTER": 315.3928, "MEAN_ANOMALY": 43.4262, "EPHEMERIS_TYPE": 0, "CLASSIFICATION_TYPE": "U", "NORAD_CAT_ID": 31937, "ELEMENT_SET_NO": 999, "REV_AT_EPOCH": 65984, "BSTAR": 0.0011794166, "MEAN_MOTION_DOT": 0.00010567, "MEAN_MOTION_DDOT": 0}, "tle": {"line1": "1 31937U 99025CMN 25340.99475867  .00010567  00000+0  11794-2 0  9999", "line2": "2 31937  99.2561  69.7316 0162921 315.3928  43.4262 14.78022374659842"}}, "geometry": {"type": "Point", "coordinates": [105.56866323152165, -52.89079536582323]}}, {"type": "Feature", "properties": {"norad_id": 31938, "name": "FENGYUN 1C DEB", "group": "fengyun-1c-debris", "lat": 80.810685980613, "lon": -68.83184194905459, "alt_km": 540.0108297704483, "timestamp": "2025-12-27T08:36:18.667363+00:00", "meta": {"OBJECT_NAME": "FENGYUN 1C DEB", "OBJECT_ID": "1999-025CMP", "EPOCH": "2025-12-25T01:37:07.523616", "MEAN_MOTION": 14.95750647, "ECCENTRICITY": 0.01522723, "INCLINATION": 98.9279, "RA_OF_ASC_NODE": 32.2117, "ARG_OF_PERICENTER": 26.5882, "MEAN_ANOMALY": 334.3043, "EPHEMERIS_TYPE": 0, "CLASSIFICATION_TYPE": "U", "NORAD_CAT_ID": 31938, "ELEMENT_SET_NO": 999, "REV_AT_EPOCH": 99320, "BSTAR": 0.00040829597, "MEAN_MOTION_DOT": 5.665e-05, "MEAN_MOTION_DDOT": 0}, "tle": {"line1": "1 31938U 99025CMP 25359.06744819  .00005665  00000+0  40830-3 0  9991", "line2": "2 31938  98.9279  32.2117 0152272  26.5882 334.3043 14.95750647993207"}}, "geometry": {"type": "Point", "coordinates": [-68.83184194905459, 80.810685980613]}}, {"type": "Feature", "properties": {"norad_id": 31944, "name": "FENGYUN 1C DEB", "group": "fengyun-1c-debris", "lat": -47.43647998717131, "lon": -40.924511495055086, "alt_km": 868.1805222730563, "timestamp": "2025-12-27T08:36:18.667373+00:00", "meta": {"OBJECT_NAME": "FENGYUN 1C DEB", "OBJECT_ID": "1999-025CMV", "EPOCH": "2025-12-12T04:22:40.814976", "MEAN_MOTION": 14.11787529, "ECCENTRICITY": 0.0151811, "INCLINATION": 99.2035, "RA_OF_ASC_NODE": 133.6743, "ARG_OF_PERICENTER": 5.8705, "MEAN_ANOMALY": 173.5719, "EPHEMERIS_TYPE": 0, "CLASSIFICATION_TYPE": "U", "NORAD_CAT_ID": 31944, "ELEMENT_SET_NO": 999, "REV_AT_EPOCH": 62902, "BSTAR": 0.0007470391, "MEAN_MOTION_DOT": 1.471e-05, "MEAN_MOTION_DDOT": 0}, "tle": {"line1": "1 31944U 99025CMV 25346.18241684  .00001471  00000+0  74704-3 0  9997", "line2": "2 31944  99.2035 133.6743 0151811   5.8705 173.5719 14.11787529629027"}}, "geometry": {"type": "Point", "coordinates": [-40.924511495055086, -47.43647998717131]}}, {"type": "Feature", "properties": {"norad_id": 31945, "name": "FENGYUN 1C DEB", "group": "fengyun-1c-debris", "lat": -27.342995152522683, "lon": 82.58271273492414, "alt_km": 825.2641516377325, "timestamp": "2025-12-27T08:36:18.667383+00:00", "meta": {"OBJECT_NAME": "FENGYUN 1C DEB", "OBJECT_ID": "1999-025CMW", "EPOCH": "2025-12-27T03:39:55.884096", "MEAN_MOTION": 14.20894891, "ECCENTRICITY": 0.0062389, "INCLINATION": 98.9608, "RA_OF_ASC_NODE": 77.6942, "ARG_OF_PERICENTER": 246.1508, "MEAN_ANOMALY": 113.3121, "EPHEMERIS_TYPE": 0, "CLASSIFICATION_TYPE": "U", "NORAD_CAT_ID": 31945, "ELEMENT_SET_NO": 999, "REV_AT_EPOCH": 95400, "BSTAR": 0.0018636, "MEAN_MOTION_DOT": 4.067e-05, "MEAN_MOTION_DDOT": 0}, "tle": {"line1": "1 31945U 99025CMW 25361.15273014  .00004067  00000+0  18636-2 0  9999", "line2": "2 31945  98.9608  77.6942 0062389 246.1508 113.3121 14.20894891954009"}}, "geometry": {"type": "Point", "coordinates": [82.58271273492414, -27.342995152522683]}}, {"type": "Feature", "properties": {"norad_id": 31946, "name": "FENGYUN 1C DEB", "group": "fengyun-1c-debris", "lat": -24.07334970978138, "lon": 65.5899782888011, "alt_km": 792.5098451437843, "timestamp": "2025-12-27T08:36:18.667395+00:00", "meta": {"OBJECT_NAME": "FENGYUN 1C DEB", "OBJECT_ID": "1999-025CMX", "EPOCH": "2025-12-23T21:39:03.195648", "MEAN_MOTION": 14.16487077, "ECCENTRICITY": 0.0081473, "INCLINATION": 98.8969, "RA_OF_ASC_NODE": 58.1228, "ARG_OF_PERICENTER": 17.293, "MEAN_ANOMALY": 343.099, "EPHEMERIS_TYPE": 0, "CLASSIFICATION_TYPE": "U", "NORAD_CAT_ID": 31946, "ELEMENT_SET_NO": 999, "REV_AT_EPOCH": 64166, "BSTAR": 0.0012861, "MEAN_MOTION_DOT": 2.6e-05, "MEAN_MOTION_DDOT": 0}, "tle": {"line1": "1 31946U 99025CMX 25357.90212032  .00002600  00000+0  12861-2 0  9996", "line2": "2 31946  98.8969  58.1228 0081473  17.2930 343.0990 14.16487077641661"}}, "geometry": {"type": "Point", "coordinates": [65.5899782888011, -24.07334970978138]}}, {"type": "Feature", "properties": {"norad_id": 31948, "name": "FENGYUN 1C DEB", "group": "fengyun-1c-debris", "lat": -78.37634970760668, "lon": -170.6884761197111, "alt_km": 800.6276762324878, "timestamp": "2025-12-27T08:36:18.667405+00:00", "meta": {"OBJECT_NAME": "FENGYUN 1C DEB", "OBJECT_ID": "1999-025CMZ", "EPOCH": "2025-12-18T10:10:15.056832", "MEAN_MOTION": 14.28329763, "ECCENTRICITY": 0.00234205, "INCLINATION": 99.3923, "RA_OF_ASC_NODE": 53.282, "ARG_OF_PERICENTER": 5.6805, "MEAN_ANOMALY": 59.9549, "EPHEMERIS_TYPE": 0, "CLASSIFICATION_TYPE": "U", "NORAD_CAT_ID": 31948, "ELEMENT_SET_NO": 999, "REV_AT_EPOCH": 95109, "BSTAR": 0.0011732562, "MEAN_MOTION_DOT": 2.889e-05, "MEAN_MOTION_DDOT": 0}, "tle": {"line1": "1 31948U 99025CMZ 25352.42378538  .00002889  00000+0  11733-2 0  9990", "line2": "2 31948  99.3923  53.2820 0023420   5.6805  59.9549 14.28329763951097"}}, "geometry": {"type": "Point", "coordinates": [-170.6884761197111, -78.37634970760668]}}, {"type": "Feature", "properties": {"norad_id": 31949, "name": "FENGYUN 1C DEB", "group": "fengyun-1c-debris", "lat": -24.12080367267636, "lon": 162.4426322946999, "alt_km": 765.4562067367578, "timestamp": "2025-12-27T08:36:18.667415+00:00", "meta": {"OBJECT_NAME": "FENGYUN 1C DEB", "OBJECT_ID": "1999-025CNA", "EPOCH": "2025-12-23T05:21:04.784256", "MEAN_MOTION": 14.16925991, "ECCENTRICITY": 0.01261914, "INCLINATION": 98.5469, "RA_OF_ASC_NODE": 342.3284, "ARG_OF_PERICENTER": 182.1147, "MEAN_ANOMALY": 177.951, "EPHEMERIS_TYPE": 0, "CLASSIFICATION_TYPE": "U", "NORAD_CAT_ID": 31949, "ELEMENT_SET_NO": 999, "REV_AT_EPOCH": 95653, "BSTAR": 0.00025831817, "MEAN_MOTION_DOT": 5.19e-06, "MEAN_MOTION_DDOT": 0}, "tle": {"line1": "1 31949U 99025CNA 25357.22297204  .00000519  00000+0  25832-3 0  9998", "line2": "2 31949  98.5469 342.3284 0126191 182.1147 177.9510 14.16925991956534"}}, "geometry": {"type": "Point", "coordinates": [162.4426322946999, -24.12080367267636]}}, {"type": "Feature", "properties": {"norad_id": 31952, "name": "FENGYUN 1C DEB", "group": "fengyun-1c-debris", "lat": 54.064273605446324, "lon": -47.973569033765656, "alt_km": 752.4879754051935, "timestamp": "2025-12-27T08:36:18.667425+00:00", "meta": {"OBJECT_NAME": "FENGYUN 1C DEB", "OBJECT_ID": "1999-025CND", "EPOCH": "2025-12-26T13:50:56.872032", "MEAN_MOTION": 14.53558379, "ECCENTRICITY": 0.0114073, "INCLINATION": 98.9559, "RA_OF_ASC_NODE": 118.6252, "ARG_OF_PERICENTER": 250.3882, "MEAN_ANOMALY": 108.497, "EPHEMERIS_TYPE": 0, "CLASSIFICATION_TYPE": "U", "NORAD_CAT_ID": 31952, "ELEMENT_SET_NO": 999, "REV_AT_EPOCH": 97410, "BSTAR": 0.00062735, "MEAN_MOTION_DOT": 2.797e-05, "MEAN_MOTION_DDOT": 0}, "tle": {"line1": "1 31952U 99025CND 25360.57704713  .00002797  00000+0  62735-3 0  9995", "line2": "2 31952  98.9559 118.6252 0114073 250.3882 108.4970 14.53558379974106"}}, "geometry": {"type": "Point", "coordinates": [-47.973569033765656, 54.064273605446324]}}, {"type": "Feature", "properties": {"norad_id": 31955, "name": "FENGYUN 1C DEB", "group": "fengyun-1c-debris", "lat": -1.7291697313177843, "lon": -119.71079042553774, "alt_km": 705.7627184787561, "timestamp": "2025-12-27T08:36:18.667435+00:00", "meta": {"OBJECT_NAME": "FENGYUN 1C DEB", "OBJECT_ID": "1999-025CNG", "EPOCH": "2025-12-26T14:42:52.983936", "MEAN_MOTION": 14.64112179, "ECCENTRICITY": 0.0043802, "INCLINATION": 99.2803, "RA_OF_ASC_NODE": 239.1674, "ARG_OF_PERICENTER": 138.0338, "MEAN_ANOMALY": 253.8761, "EPHEMERIS_TYPE": 0, "CLASSIFICATION_TYPE": "U", "NORAD_CAT_ID": 31955, "ELEMENT_SET_NO": 999, "REV_AT_EPOCH": 96760, "BSTAR": 0.0015887, "MEAN_MOTION_DOT": 8.412e-05, "MEAN_MOTION_DDOT": 0}, "tle": {"line1": "1 31955U 99025CNG 25360.61311324  .00008412  00000+0  15887-2 0  9990", "line2": "2 31955  99.2803 239.1674 0043802 138.0338 253.8761 14.64112179967607"}}, "geometry": {"type": "Point", "coordinates": [-119.71079042553774, -1.7291697313177843]}}, {"type": "Feature", "properties": {"norad_id": 31959, "name": "FENGYUN 1C DEB", "group": "fengyun-1c-debris", "lat": -45.23040733752541, "lon": 43.75489585523883, "alt_km": 750.5823301008286, "timestamp": "2025-12-27T08:36:18.667448+00:00", "meta": {"OBJECT_NAME": "FENGYUN 1C DEB", "OBJECT_ID": "1999-025CNL", "EPOCH": "2025-12-21T22:06:57.352032", "MEAN_MOTION": 14.46896532, "ECCENTRICITY": 0.00273534, "INCLINATION": 98.5099, "RA_OF_ASC_NODE": 226.9733, "ARG_OF_PERICENTER": 126.577, "MEAN_ANOMALY": 233.7945, "EPHEMERIS_TYPE": 0, "CLASSIFICATION_TYPE": "U", "NORAD_CAT_ID": 31959, "ELEMENT_SET_NO": 999, "REV_AT_EPOCH": 64486, "BSTAR": 0.0023827795, "MEAN_MOTION_DOT": 8.652e-05, "MEAN_MOTION_DDOT": 0}, "tle": {"line1": "1 31959U 99025CNL 25355.92149713  .00008652  00000+0  23828-2 0  9993", "line2": "2 31959  98.5099 226.9733 0027353 126.5770 233.7945 14.46896532644868"}}, "geometry": {"type": "Point", "coordinates": [43.75489585523883, -45.23040733752541]}}]}